[{"OBJECT_NAME":"GHGSAT-C3","OBJECT_ID":"2022-057F","EPOCH":"2026-03-09T22:30:13.234752","MEAN_MOTION":15.32943835,"ECCENTRICITY":0.00073198,"INCLINATION":97.6431,"RA_OF_ASC_NODE":211.0668,"ARG_OF_PERICENTER":112.4588,"MEAN_ANOMALY":247.7429,"EPHEMERIS_TYPE":0,"CLASSIFICATION_TYPE":"U","NORAD_CAT_ID":52737,"ELEMENT_SET_NO":999,"REV_AT_EPOCH":21032,"BSTAR":0.00031249517,"MEAN_MOTION_DOT":9.871e-5,"MEAN_MOTION_DDOT":0},{"OBJECT_NAME":"STARLINK-36112","OBJECT_ID":"2025-286V","EPOCH":"2026-03-09T22:49:02.977824","MEAN_MOTION":15.30219241,"ECCENTRICITY":0.00013596,"INCLINATION":53.1609,"RA_OF_ASC_NODE":357.4539,"ARG_OF_PERICENTER":40.369,"MEAN_ANOMALY":319.7412,"EPHEMERIS_TYPE":0,"CLASSIFICATION_TYPE":"U","NORAD_CAT_ID":66944,"ELEMENT_SET_NO":999,"REV_AT_EPOCH":1545,"BSTAR":0.0011443275,"MEAN_MOTION_DOT":0.00033707,"MEAN_MOTION_DDOT":0}]
